1 79712U          19328.50972222  .00000000  00000-0  00000-0 0 00000
2 79712 097.7380 114.3490 0000000 000.0000 263.4050 15.01914300000000
1 79712U          19328.85138889  .00000000  00000-0  00000-0 0 00000
2 79712 097.7380 114.6850 0000000 000.0000 308.4050 15.01914300000000
1 79712U          19329.18541667  .00000000  00000-0  00000-0 0 00000
2 79712 097.7380 115.0150 0000000 000.0000 312.1560 15.01914300000000
1 79712U          19329.61944444  .00000000  00000-0  00000-0 0 00000
2 79712 097.7380 115.4430 0000000 000.0000 135.9060 15.01914300000000
1 79712U          19329.88958333  .00000000  00000-0  00000-0 0 00000
2 79712 097.7370 115.7090 0000000 000.0000 154.6570 15.01914300000000
1 79712U          19330.21041667  .00000000  00000-0  00000-0 0 00000
2 79712 097.7370 116.0250 0000000 000.0000 087.1570 15.01914300000000
1 79712U          19330.51805556  .00000000  00000-0  00000-0 0 00000
2 79712 097.7370 116.3280 0000000 000.0000 308.4080 15.01914300000000
1 79712U          19330.96319444  .00000000  00000-0  00000-0 0 00000
2 79712 097.7360 116.7670 0000000 000.0000 192.1590 15.01914300000000
1 79712U          19331.28819444  .00000000  00000-0  00000-0 0 00000
2 79712 097.7360 117.0880 0000000 000.0000 147.1590 15.01914300000000
1 79712U          19331.58194444  .00000000  00000-0  00000-0 0 00000
2 79712 097.7360 117.3770 0000000 000.0000 293.4100 15.01914300000000
1 79712U          19331.90000000  .00000000  00000-0  00000-0 0 00000
2 79712 097.7360 117.6910 0000000 000.0000 210.9100 15.01914300000000
1 79712U          19332.15208333  .00000000  00000-0  00000-0 0 00000
2 79712 097.7350 117.9390 0000000 000.0000 132.1610 15.01914300000000
1 79712U          19332.50763889  .00000000  00000-0  00000-0 0 00000
2 79712 097.7350 118.2900 0000000 000.0000 252.1610 15.01914300000000
1 79712U          19332.83819444  .00000000  00000-0  00000-0 0 00000
2 79712 097.7350 118.6160 0000000 000.0000 237.1620 15.01914300000000
